start=new Date('2022-12-18T00:00:00.000Z').valueOf();
sats=[{"EPOCH":"2022-12-17T17:49:23.787552","PERIOD":"95.437","REF_FRAME":"TEME","OBJECT_TYPE":"PAYLOAD","REV_AT_EPOCH":"6079","DECAY_DATE":null,"CENTER_NAME":"EARTH","CLASSIFICATION_TYPE":"U","SITE":"AFETR","OBJECT_ID":"2021-104S","INCLINATION":"53.2173","EPHEMERIS_TYPE":"0","FILE":"3707070","OBJECT_NAME":"STARLINK-3135","MEAN_MOTION_DOT":"0.00002223","TLE_LINE1":"1 49424U 21104S   22351.74263643  .00002223  00000-0  15771-3 0  9992","RCS_SIZE":"LARGE","MEAN_MOTION_DDOT":"0.0000000000000","NORAD_CAT_ID":"49424","MEAN_ELEMENT_THEORY":"SGP4","SEMIMAJOR_AXIS":"6917.850","BSTAR":"0.00015771000000","LAUNCH_DATE":"2021-11-13","APOAPSIS":"541.159","MEAN_ANOMALY":"313.0295","MEAN_MOTION":"15.08849857","TLE_LINE2":"2 49424  53.2173 117.1377 0002087  47.0872 313.0295 15.08849857 60798","ARG_OF_PERICENTER":"47.0872","COUNTRY_CODE":"US","GP_ID":"220757998","ELEMENT_SET_NO":"999","ECCENTRICITY":"0.00020870","TIME_SYSTEM":"UTC","PERIAPSIS":"538.272","RA_OF_ASC_NODE":"117.1377"},{"DECAY_DATE":null,"CLASSIFICATION_TYPE":"U","REV_AT_EPOCH":"6081","CENTER_NAME":"EARTH","SITE":"AFETR","OBJECT_ID":"2021-104T","INCLINATION":"53.2157","EPOCH":"2022-12-17T19:03:35.862912","REF_FRAME":"TEME","OBJECT_TYPE":"PAYLOAD","PERIOD":"95.438","NORAD_CAT_ID":"49425","MEAN_MOTION_DDOT":"0.0000000000000","MEAN_ELEMENT_THEORY":"SGP4","BSTAR":"-0.00012357000000","LAUNCH_DATE":"2021-11-13","SEMIMAJOR_AXIS":"6917.901","APOAPSIS":"542.045","FILE":"3707070","EPHEMERIS_TYPE":"0","OBJECT_NAME":"STARLINK-3139","RCS_SIZE":"LARGE","MEAN_MOTION_DOT":"-0.00002255","TLE_LINE1":"1 49425U 21104T   22351.79416508 -.00002255  00000-0 -12357-3 0  9992","COUNTRY_CODE":"US","GP_ID":"220758249","ELEMENT_SET_NO":"999","MEAN_ANOMALY":"309.0619","ARG_OF_PERICENTER":"51.0666","MEAN_MOTION":"15.08833111","TLE_LINE2":"2 49425  53.2157 116.9090 0003294  51.0666 309.0619 15.08833111 60811","TIME_SYSTEM":"UTC","PERIAPSIS":"537.488","RA_OF_ASC_NODE":"116.9090","ECCENTRICITY":"0.00032940"},{"OBJECT_ID":"2021-104U","INCLINATION":"53.2156","DECAY_DATE":null,"REV_AT_EPOCH":"6078","CENTER_NAME":"EARTH","CLASSIFICATION_TYPE":"U","SITE":"AFETR","EPOCH":"2022-12-17T16:03:24.722496","PERIOD":"95.438","REF_FRAME":"TEME","OBJECT_TYPE":"PAYLOAD","SEMIMAJOR_AXIS":"6917.880","BSTAR":"-0.00002990000000","LAUNCH_DATE":"2021-11-13","APOAPSIS":"541.371","MEAN_MOTION_DDOT":"0.0000000000000","NORAD_CAT_ID":"49426","MEAN_ELEMENT_THEORY":"SGP4","OBJECT_NAME":"STARLINK-3114","MEAN_MOTION_DOT":"-0.00000764","TLE_LINE1":"1 49426U 21104U   22351.66903614 -.00000764  00000-0 -29900-4 0  9994","RCS_SIZE":"LARGE","EPHEMERIS_TYPE":"0","FILE":"3707070","ELEMENT_SET_NO":"999","COUNTRY_CODE":"US","GP_ID":"220756998","MEAN_MOTION":"15.08840167","TLE_LINE2":"2 49426  53.2156 117.4687 0002350  39.6469 320.4694 15.08840167 60789","ARG_OF_PERICENTER":"39.6469","MEAN_ANOMALY":"320.4694","PERIAPSIS":"538.119","RA_OF_ASC_NODE":"117.4687","TIME_SYSTEM":"UTC","ECCENTRICITY":"0.00023500"},{"OBJECT_NAME":"STARLINK-3131","TLE_LINE1":"1 49427U 21104V   22351.72423550 -.00000793  00000-0 -31723-4 0  9996","MEAN_MOTION_DOT":"-0.00000793","RCS_SIZE":"LARGE","EPHEMERIS_TYPE":"0","FILE":"3707070","SEMIMAJOR_AXIS":"6917.904","BSTAR":"-0.00003172300000","LAUNCH_DATE":"2021-11-13","APOAPSIS":"541.629","MEAN_MOTION_DDOT":"0.0000000000000","NORAD_CAT_ID":"49427","MEAN_ELEMENT_THEORY":"SGP4","EPOCH":"2022-12-17T17:22:53.947200","PERIOD":"95.438","REF_FRAME":"TEME","OBJECT_TYPE":"PAYLOAD","OBJECT_ID":"2021-104V","INCLINATION":"53.2161","DECAY_DATE":null,"REV_AT_EPOCH":"6080","CENTER_NAME":"EARTH","CLASSIFICATION_TYPE":"U","SITE":"AFETR","ECCENTRICITY":"0.00026890","PERIAPSIS":"537.909","RA_OF_ASC_NODE":"117.2243","TIME_SYSTEM":"UTC","TLE_LINE2":"2 49427  53.2161 117.2243 0002689  46.2021 313.9193 15.08832262 60806","MEAN_MOTION":"15.08832262","ARG_OF_PERICENTER":"46.2021","MEAN_ANOMALY":"313.9193","ELEMENT_SET_NO":"999","COUNTRY_CODE":"US","GP_ID":"220757247"},{"INCLINATION":"53.2176","OBJECT_ID":"2021-104W","SITE":"AFETR","DECAY_DATE":null,"CENTER_NAME":"EARTH","REV_AT_EPOCH":"6079","CLASSIFICATION_TYPE":"U","PERIOD":"95.438","OBJECT_TYPE":"PAYLOAD","REF_FRAME":"TEME","EPOCH":"2022-12-17T15:33:00.166176","APOAPSIS":"541.640","SEMIMAJOR_AXIS":"6917.897","BSTAR":"0.00000054297000","LAUNCH_DATE":"2021-11-13","MEAN_ELEMENT_THEORY":"SGP4","MEAN_MOTION_DDOT":"0.0000000000000","NORAD_CAT_ID":"49428","TLE_LINE1":"1 49428U 21104W   22351.64791859 -.00000280  00000-0  54297-6 0  9991","MEAN_MOTION_DOT":"-0.00000280","RCS_SIZE":"LARGE","OBJECT_NAME":"STARLINK-3121","EPHEMERIS_TYPE":"0","FILE":"3707070","ELEMENT_SET_NO":"999","GP_ID":"220758498","COUNTRY_CODE":"US","MEAN_MOTION":"15.08834483","TLE_LINE2":"2 49428  53.2176 117.5660 0002715  52.2513 307.8725 15.08834483 60790","ARG_OF_PERICENTER":"52.2513","MEAN_ANOMALY":"307.8725","RA_OF_ASC_NODE":"117.5660","PERIAPSIS":"537.884","TIME_SYSTEM":"UTC","ECCENTRICITY":"0.00027150"},{"MEAN_MOTION_DOT":"0.00001777","TLE_LINE1":"1 49430U 21104Y   22351.65431256  .00001777  00000-0  12972-3 0  9999","RCS_SIZE":"LARGE","OBJECT_NAME":"STARLINK-3138","EPHEMERIS_TYPE":"0","FILE":"3707070","APOAPSIS":"541.285","SEMIMAJOR_AXIS":"6917.868","BSTAR":"0.00012972000000","LAUNCH_DATE":"2021-11-13","MEAN_ELEMENT_THEORY":"SGP4","MEAN_MOTION_DDOT":"0.0000000000000","NORAD_CAT_ID":"49430","PERIOD":"95.437","OBJECT_TYPE":"PAYLOAD","REF_FRAME":"TEME","EPOCH":"2022-12-17T15:42:12.605184","INCLINATION":"53.2173","OBJECT_ID":"2021-104Y","SITE":"AFETR","CENTER_NAME":"EARTH","DECAY_DATE":null,"REV_AT_EPOCH":"6079","CLASSIFICATION_TYPE":"U","ECCENTRICITY":"0.00022430","RA_OF_ASC_NODE":"117.5430","PERIAPSIS":"538.182","TIME_SYSTEM":"UTC","TLE_LINE2":"2 49430  53.2173 117.5430 0002243  44.8002 315.3171 15.08843915 60790","MEAN_MOTION":"15.08843915","ARG_OF_PERICENTER":"44.8002","MEAN_ANOMALY":"315.3171","ELEMENT_SET_NO":"999","GP_ID":"220758749","COUNTRY_CODE":"US"},{"RA_OF_ASC_NODE":"117.1223","PERIAPSIS":"538.146","TIME_SYSTEM":"UTC","ECCENTRICITY":"0.00022680","ELEMENT_SET_NO":"999","GP_ID":"220757497","COUNTRY_CODE":"US","TLE_LINE2":"2 49431  53.2158 117.1223 0002268  46.9861 313.1321 15.08849974 60809","MEAN_MOTION":"15.08849974","ARG_OF_PERICENTER":"46.9861","MEAN_ANOMALY":"313.1321","APOAPSIS":"541.284","SEMIMAJOR_AXIS":"6917.850","LAUNCH_DATE":"2021-11-13","BSTAR":"0.00052380000000","MEAN_ELEMENT_THEORY":"SGP4","MEAN_MOTION_DDOT":"0.0000000000000","NORAD_CAT_ID":"49431","MEAN_MOTION_DOT":"0.00008060","TLE_LINE1":"1 49431U 21104Z   22351.74727965  .00008060  00000-0  52380-3 0  9994","RCS_SIZE":"LARGE","OBJECT_NAME":"STARLINK-3153","EPHEMERIS_TYPE":"0","FILE":"3707070","INCLINATION":"53.2158","OBJECT_ID":"2021-104Z","SITE":"AFETR","DECAY_DATE":null,"CLASSIFICATION_TYPE":"U","REV_AT_EPOCH":"6080","CENTER_NAME":"EARTH","PERIOD":"95.437","REF_FRAME":"TEME","OBJECT_TYPE":"PAYLOAD","EPOCH":"2022-12-17T17:56:04.961760"},{"TLE_LINE2":"2 49432  53.2165 106.7854 0003886  52.9799 307.1549 15.08829166 60958","MEAN_MOTION":"15.08829166","ARG_OF_PERICENTER":"52.9799","MEAN_ANOMALY":"307.1549","ELEMENT_SET_NO":"999","GP_ID":"220757747","COUNTRY_CODE":"US","ECCENTRICITY":"0.00038860","RA_OF_ASC_NODE":"106.7854","PERIAPSIS":"537.090","TIME_SYSTEM":"UTC","PERIOD":"95.438","REF_FRAME":"TEME","OBJECT_TYPE":"PAYLOAD","EPOCH":"2022-12-17T19:38:05.827200","INCLINATION":"53.2165","OBJECT_ID":"2021-104AA","SITE":"AFETR","CENTER_NAME":"EARTH","DECAY_DATE":null,"REV_AT_EPOCH":"6095","CLASSIFICATION_TYPE":"U","TLE_LINE1":"1 49432U 21104AA  22351.81812300 -.00000815  00000-0 -33031-4 0  9996","MEAN_MOTION_DOT":"-0.00000815","RCS_SIZE":"LARGE","OBJECT_NAME":"STARLINK-3158","EPHEMERIS_TYPE":"0","FILE":"3707070","APOAPSIS":"542.467","SEMIMAJOR_AXIS":"6917.914","LAUNCH_DATE":"2021-11-13","BSTAR":"-0.00003303100000","MEAN_ELEMENT_THEORY":"SGP4","MEAN_MOTION_DDOT":"0.0000000000000","NORAD_CAT_ID":"49432"},{"ECCENTRICITY":"0.00030240","TIME_SYSTEM":"UTC","RA_OF_ASC_NODE":"97.6910","PERIAPSIS":"537.702","MEAN_ANOMALY":"317.8183","ARG_OF_PERICENTER":"42.3042","MEAN_MOTION":"15.08824047","TLE_LINE2":"2 49433  53.2188  97.6910 0003024  42.3042 317.8183 15.08824047 62152","GP_ID":"220757999","COUNTRY_CODE":"US","ELEMENT_SET_NO":"999","FILE":"3707070","EPHEMERIS_TYPE":"0","RCS_SIZE":"LARGE","TLE_LINE1":"1 49433U 21104AB  22351.61937052 -.00000561  00000-0 -17106-4 0  9990","MEAN_MOTION_DOT":"-0.00000561","OBJECT_NAME":"STARLINK-3079","MEAN_ELEMENT_THEORY":"SGP4","NORAD_CAT_ID":"49433","MEAN_MOTION_DDOT":"0.0000000000000","APOAPSIS":"541.886","BSTAR":"-0.00001710600000","LAUNCH_DATE":"2021-11-13","SEMIMAJOR_AXIS":"6917.929","REF_FRAME":"TEME","OBJECT_TYPE":"PAYLOAD","PERIOD":"95.439","EPOCH":"2022-12-17T14:51:53.612928","SITE":"AFETR","DECAY_DATE":null,"REV_AT_EPOCH":"6215","CENTER_NAME":"EARTH","CLASSIFICATION_TYPE":"U","INCLINATION":"53.2188","OBJECT_ID":"2021-104AB"},{"ECCENTRICITY":"0.00026100","PERIAPSIS":"537.936","RA_OF_ASC_NODE":"117.5560","TIME_SYSTEM":"UTC","TLE_LINE2":"2 49434  53.2150 117.5560 0002610  45.1654 314.9550 15.08841281 61878","MEAN_MOTION":"15.08841281","ARG_OF_PERICENTER":"45.1654","MEAN_ANOMALY":"314.9550","ELEMENT_SET_NO":"999","COUNTRY_CODE":"US","GP_ID":"220758250","OBJECT_NAME":"STARLINK-3134","TLE_LINE1":"1 49434U 21104AC  22351.65063893  .00003173  00000-0  21738-3 0  9993","MEAN_MOTION_DOT":"0.00003173","RCS_SIZE":"LARGE","EPHEMERIS_TYPE":"0","FILE":"3707070","SEMIMAJOR_AXIS":"6917.876","BSTAR":"0.00021738000000","LAUNCH_DATE":"2021-11-13","APOAPSIS":"541.547","MEAN_MOTION_DDOT":"0.0000000000000","NORAD_CAT_ID":"49434","MEAN_ELEMENT_THEORY":"SGP4","EPOCH":"2022-12-17T15:36:55.203552","PERIOD":"95.437","OBJECT_TYPE":"PAYLOAD","REF_FRAME":"TEME","OBJECT_ID":"2021-104AC","INCLINATION":"53.2150","CENTER_NAME":"EARTH","DECAY_DATE":null,"REV_AT_EPOCH":"6187","CLASSIFICATION_TYPE":"U","SITE":"AFETR"}];
